CALSPHERE 1             
1 00900U 64063C   22262.87235904  .00000483  00000+0  50393-3 0  9997
2 00900  90.1792  42.6380 0028947  98.9295  75.5402 13.73893286883624
CALSPHERE 2             
1 00902U 64063E   22262.86139500  .00000046  00000+0  55878-4 0  9992
2 00902  90.1921  45.7793 0016895 229.7857 303.4938 13.52722003671996
LCS 1                   
1 01361U 65034C   22262.83545059 -.00000001  00000+0 -12713-2 0  9990
2 01361  32.1379 181.1994 0012614 212.6120 147.3598  9.89302066 74572
TEMPSAT 1               
1 01512U 65065E   22263.32975778  .00000054  00000+0  87903-4 0  9993
2 01512  89.9193 217.8774 0071569 123.1484  30.3138 13.33455215778010
CALSPHERE 4A            
1 01520U 65065H   22263.47636345  .00000078  00000+0  13362-3 0  9995
2 01520  89.9861 130.0968 0069572 357.0831  77.8873 13.35904457780752
OPS 5712 (P/L 160)      
1 02826U 67053A   22263.06040156  .00002366  00000+0  61344-3 0  9993
2 02826  69.9278  67.0865 0006922 236.5274 123.5199 14.50959600866954
OPS 5712 (P/L 153)      
1 02874U 67053H   22263.12121497 -.00000007  00000+0  33285-4 0  9996
2 02874  69.9744 162.3711 0007252 192.0134 168.0800 13.96416805816527
SURCAL 150B             
1 02909U 67053J   22262.86122410  .00004340  00000+0  82768-3 0  9993
2 02909  69.9475  52.3309 0005572 263.7732  96.2775 14.64648576877439
RIGIDSPHERE 2 (LCS 4)   
1 05398U 71067E   22263.50306839  .00000444  00000+0  14794-3 0  9994
2 05398  87.6291 356.7813 0065216  72.6927 288.1391 14.34319570678118
COSMOS 2493 (SKRL-756 1)
1 39490U 13078A   22263.50529082  .00001191  00000+0  12180-3 0  9996
2 39490  82.4186 143.0945 0017889 137.4492 222.8116 14.89636242474175
COSMOS 2494 (SKRL-756 2)
1 39491U 13078B   22263.45463041  .00001286  00000+0  12665-3 0  9996
2 39491  82.4178 136.7157 0022806 114.9511 245.4081 14.91099438474498
